0 METEOR 2-17 DEB
1 38282U 88005AK  13281.07656986  .00002051  00000-0  16674-2 0   698
2 38282 082.5434 049.8533 0022925 166.1948 194.0246 13.89363312140525
0 METEOR 2-17 DEB
1 38282U 88005AK  13283.09301402  .00002074  00000-0  16858-2 0   703
2 38282 082.5429 048.2353 0022774 161.2438 198.9712 13.89372131140805
0 METEOR 2-17 DEB
1 38282U 88005AK  13285.03742597  .00002240  00000-0  18209-2 0   722
2 38282 082.5432 046.6777 0023133 156.2541 203.9949 13.89383928141075
0 METEOR 2-17 DEB
1 38282U 88005AK  13287.05384228  .00002384  00000-0  19389-2 0   739
2 38282 082.5410 045.0621 0021924 146.7451 213.5190 13.89395563141356
0 METEOR 2-17 DEB
1 38282U 88005AK  13290.07844008  .00002530  00000-0  20573-2 0   743
2 38282 082.5432 042.6348 0022790 141.8690 218.5081 13.89413719141776
0 METEOR 2-17 DEB
1 38282U 88005AK  13291.01459697  .00002627  00000-0  21361-2 0   758
2 38282 082.5447 041.8820 0024592 142.0180 218.3263 13.89420484141909
0 METEOR 2-17 DEB
1 38282U 88005AK  13292.59887571  .00002806  00000-0  22835-2 0   765
2 38282 082.5414 040.6120 0020684 135.5092 224.8012 13.89432216142125
0 METEOR 2-17 DEB
1 38282U 88005AK  13293.03094621  .00002829  00000-0  23014-2 0   777
2 38282 082.5421 040.2657 0022964 136.1251 224.1944 13.89435103142182
